# ****************************************************************************
# CUI
#
# The Advanced Framework for Simulation, Integration, and Modeling (AFSIM)
#
# The use, dissemination or disclosure of data in this file is subject to
# limitation or restriction. See accompanying README and LICENSE for details.
# ****************************************************************************
# See satellite_types.txt for platform type definitions.

platform MOLNIYA_2-9(07276) MOLNIYA
   orbit
1 07276U 74026A   14243.76124105  .00020526  40062-6  44461-3 0   357
2 07276  62.3555  14.8127 7294960 274.9698  13.2174  2.30997276179780
   end_orbit
end_platform

platform MOLNIYA_2-10(07376) MOLNIYA
   orbit
1 07376U 74056A   14239.20475830  .00000984  00000-0 -99604-4 0  7591
2 07376  61.4808 114.2383 7408607 275.2389 346.9418  2.00754691293072
   end_orbit
end_platform

platform MOLNIYA_1-S(07392) MOLNIYA
   orbit
1 07392U 74060A   14242.89978161 -.00000119  00000-0  00000+0 0  3120
2 07392  10.7830 318.7105 0013112 146.8221 272.5642  1.00345609 90969
   end_orbit
end_platform

platform MOLNIYA_1-29(07780) MOLNIYA
   orbit
1 07780U 75036A   14240.64802664  .00000322  00000-0  55089-3 0  2709
2 07780  62.0204 290.2221 7410751 257.7376 349.8367  2.00565724288467
   end_orbit
end_platform

platform MOLNIYA_2-13(08015) MOLNIYA
   orbit
1 08015U 75063A   14243.33297051  .00001692  00000-0  20864-3 0  2195
2 08015  62.2184 296.0651 7425817 253.2484  20.0184  2.00662800286858
   end_orbit
end_platform

platform MOLNIYA_2-14(08195) MOLNIYA
   orbit
1 08195U 75081A   14243.08420382 -.00000312  00000-0 -35034-3 0  4121
2 08195  61.7326 264.4177 7410183 258.5576  17.7555  2.00716693285619
   end_orbit
end_platform

platform MOLNIYA_3-3(08425) MOLNIYA
   orbit
1 08425U 75105A   14242.64488725  .00000425  00000-0  61672-3 0  6346
2 08425  61.9109 291.2723 7428820 249.2836 351.5943  2.00557771284242
   end_orbit
end_platform

platform MOLNIYA_1-32(08601) MOLNIYA
   orbit
1 08601U 76006A   14243.40977571 -.00000907  00000-0  00000+0 0  2975
2 08601  62.9777 359.5952 7368599 258.7802  93.8686  1.99935289282065
   end_orbit
end_platform

platform MOLNIYA_2-17(09829) MOLNIYA
   orbit
1 09829U 77010A   14240.92601191  .00000242  00000-0  00000+0 0   261
2 09829  63.5142  28.5605 7284903 245.6360 351.3960  2.00848648275120
   end_orbit
end_platform

platform MOLNIYA_1-36(09880) MOLNIYA
   orbit
1 09880U 77021A   14242.93186053  .00001625  00000-0  23033-2 0  2811
2 09880  62.8236 356.9467 7408862 253.6979  20.0920  2.00718979172321
   end_orbit
end_platform

platform MOLNIYA_3-7(09941) MOLNIYA
   orbit
1 09941U 77032A   14240.92896926  .00000973  00000-0  40511-2 0  1640
2 09941  63.0731   5.2474 7370637 247.2792  24.0085  2.00711546273572
   end_orbit
end_platform

platform MOLNIYA_3-8(10455) MOLNIYA
   orbit
1 10455U 77105A   14242.59290845  .00001067  00000-0  99271-2 0  1749
2 10455  62.9927  64.4465 7300839 258.2301  19.0664  2.00444105269937
   end_orbit
end_platform

platform MOLNIYA_1-40(10925) MOLNIYA
   orbit
1 10925U 78055A   14243.05880559 -.00000711  00000-0  00000+0 0  1188
2 10925  62.6520  96.9857 7256157 261.2867 348.4967  2.00646752265588
   end_orbit
end_platform

platform MOLNIYA_1-42(11007) MOLNIYA
   orbit
1 11007U 78080A   14241.90353769  .00000053  00000-0 -17270-3 0  5924
2 11007  62.4600 139.9178 7163456 252.6487  23.2053  2.31262130283472
   end_orbit
end_platform

platform MOLNIYA_3-10(11057) MOLNIYA
   orbit
1 11057U 78095A   14243.13459095  .00000221  00000-0  11443-2 0  5180
2 11057  62.5796 216.0352 7028036 258.8043  21.4196  2.34209077286852
   end_orbit
end_platform

platform MOLNIYA_1-44(11474) MOLNIYA
   orbit
1 11474U 79070A   14243.91674204  .00127662  10235-5  95585-3 0  9723
2 11474  62.0996 217.5296 2787689 196.2445 194.8238  9.96292776449516
   end_orbit
end_platform

platform MOLNIYA_3-13(11896) MOLNIYA
   orbit
1 11896U 80063A   14240.89914157  .00000322  00000-0  00000+0 0   376
2 11896  62.8614 185.9467 7072235 262.8493  19.1718  2.00627688249971
   end_orbit
end_platform

platform MOLNIYA_1-49(12156) MOLNIYA
   orbit
1 12156U 81009A   14243.32027598 -.00000556  00000-0  00000+0 0  8392
2 12156  64.5952 184.5865 6546052 259.5192 340.1020  2.05708275162955
   end_orbit
end_platform

platform MOLNIYA_1-52(13012) MOLNIYA
   orbit
1 13012U 81123A   14243.38534310  .00001161  00000-0  29230+0 0  8974
2 13012  64.5916 251.3105 6631940 268.0727 190.2440  2.00734985239538
   end_orbit
end_platform

platform MOLNIYA_1-53(13070) MOLNIYA
   orbit
1 13070U 82015A   14242.48598625  .00000689  00000-0  11407-1 0  4887
2 13070  62.9271 277.4421 7228646 260.9358 248.6261  2.00605976238103
   end_orbit
end_platform

platform MOLNIYA_3-20(13875) MOLNIYA
   orbit
1 13875U 83015A   14243.57879624  .00001282  00000-0  83497-1 0  7086
2 13875  64.2226 336.0315 7017949 270.3969 159.2135  2.00709316166650
   end_orbit
end_platform

platform MOLNIYA_1-56(13890) MOLNIYA
   orbit
1 13890U 83019A   14242.43151462 -.00001295  00000-0  00000+0 0  2261
2 13890  64.0010  19.8012 7115771 267.5969 139.7668  1.99923095229682
   end_orbit
end_platform

platform MOLNIYA_1-62(15214) MOLNIYA
   orbit
1 15214U 84089A   14243.09848273  .00001054  00000-0  16277-1 0  8732
2 15214  63.8848  58.9368 7207666 262.7961  50.6477  1.97921322187908
   end_orbit
end_platform

platform MOLNIYA_1-63(15429) MOLNIYA
   orbit
1 15429U 84124A   14241.23575020  .00001285  00000-0  00000+0 0  5830
2 15429  63.4369 112.2953 6781127 276.8046 334.7317  2.00732779217658
   end_orbit
end_platform

platform MOLNIYA_3-24(15738) MOLNIYA
   orbit
1 15738U 85040A   14240.26390520  .00000119  00000-0 -13573-1 0  4154
2 15738  64.3944 174.3972 6341995 279.2752 316.4152  2.55629325231041
   end_orbit
end_platform

platform MOLNIYA_3-27(16393) MOLNIYA
   orbit
1 16393U 85117A   14241.41293003 -.00000074  00000-0 -27285-1 0  8311
2 16393  64.1587  39.7409 6876902 284.3071  63.4829  2.12396771213680
   end_orbit
end_platform

platform MOLNIYA_1-69(17078) MOLNIYA
   orbit
1 17078U 86089A   14243.37541314 -.00001056  00000-0 -98716-1 0  8328
2 17078  63.6846 136.4327 6793913 280.0393 170.3189  2.00928299203709
   end_orbit
end_platform

platform MOLNIYA_3-31(17328) MOLNIYA
   orbit
1 17328U 87008A   14243.44210833  .00000307  00000-0 -28695-1 0  8107
2 17328  63.7094  86.7699 6924955 277.1586 240.7340  2.00554480198784
   end_orbit
end_platform

platform MOLNIYA_1-71(18946) MOLNIYA
   orbit
1 18946U 88017A   14243.04159005  .00000398  00000-0 -28369-1 0  7628
2 18946  63.7047 101.7506 6945682 274.5117 279.4507  2.00617387193971
   end_orbit
end_platform

platform MOLNIYA_1-75(19807) MOLNIYA
   orbit
1 19807U 89014A   14243.37522010 -.00000633  00000-0  39495-1 0  1076
2 19807  63.4509 250.2033 7082509 283.3114  12.2140  2.00482924187009
   end_orbit
end_platform

platform MOLNIYA_1-80(21118) MOLNIYA
   orbit
1 21118U 91012A   14243.37366132 -.00000759  00000-0  41151-3 0  6546
2 21118  62.3621 330.5203 7447815 285.1175 128.7581  2.05030426172583
   end_orbit
end_platform

platform MOLNIYA_3-40(21196) MOLNIYA
   orbit
1 21196U 91022A   14243.17575781 -.00001386  00000-0  67642-3 0   806
2 21196  62.6283 311.2731 7418955 287.1145   9.5302  2.02997985171866
   end_orbit
end_platform

platform MOLNIYA_1-81(21426) MOLNIYA
   orbit
1 21426U 91043A   14241.32673709  .00000124  00000-0 -89887-3 0  9767
2 21426  63.0797 323.8559 7324318 283.0887  42.2626  2.00621440169993
   end_orbit
end_platform

platform MOLNIYA_3-41(21706) MOLNIYA
   orbit
1 21706U 91065A   14242.33026378  .00000911  00000-0 -37156-1 0  2934
2 21706  63.5952 140.5612 6911068 281.7244 328.4975  2.04351539168731
   end_orbit
end_platform

platform MOLNIYA_3-42(22178) MOLNIYA
   orbit
1 22178U 92067A   14242.47538681  .00000132  00000-0  13030-2 0  6980
2 22178  62.9566 235.5561 7126164 288.2931 120.8996  2.20433292161744
   end_orbit
end_platform

platform MOLNIYA_1-86(22671) MOLNIYA
   orbit
1 22671U 93035A   14243.72128898  .00001901  00000-0  32770-3 0   272
2 22671  62.8053 103.7073 5012580 315.9571  25.4772  5.59521709192166
   end_orbit
end_platform

platform MOLNIYA_1-87(22949) MOLNIYA
   orbit
1 22949U 93079A   14241.35060187 -.00001132  00000-0 -29537-4 0  2583
2 22949  61.6790 130.7907 7361688 269.4364 218.0607  2.00804803151621
   end_orbit
end_platform

platform MOLNIYA_1-88(23420) MOLNIYA
   orbit
1 23420U 94081A   14243.19750448  .00000666  00000-0  47308-3 0  4421
2 23420  62.6970 210.3372 6426938 292.3731  13.7180  3.34353036151700
   end_orbit
end_platform

platform MOLNIYA_3-47(23642) MOLNIYA
   orbit
1 23642U 95042A   14243.04244564  .00000379  00000-0 -43115-3 0  1966
2 23642  61.8847 107.4430 7394621 270.9656 273.6462  2.00644511139678
   end_orbit
end_platform

platform MOLNIYA_1-90(24960) MOLNIYA
   orbit
1 24960U 97054A   14240.85309322  .00000560  00000-0 -20475-3 0  6584
2 24960  61.9140 138.6302 7374463 270.5765  13.8377  2.04646740124507
   end_orbit
end_platform

platform MOLNIYA_1-91(25485) MOLNIYA
   orbit
1 25485U 98054A   14243.99342575  .00000723  00000-0  10000-3 0  5158
2 25485  62.1695 277.2101 7420451 259.2674 256.5492  2.00594962116663
   end_orbit
end_platform

platform MOLNIYA_3-50(25847) MOLNIYA
   orbit
1 25847U 99036A   14243.00687334  .00000272  00000-0  28453-2 0  7261
2 25847  63.1351  45.6028 7317362 257.9000  19.0760  2.00650787110981
   end_orbit
end_platform

platform MOLNIYA_3-51(26867) MOLNIYA
   orbit
1 26867U 01030A   14243.70286042  .00025460 -94276-7  52835-3 0  4833
2 26867  62.6892 284.7511 7175356 257.9428  20.3609  2.46359918 96971
   end_orbit
end_platform

platform MOLNIYA_1-93(28163) MOLNIYA
   orbit
1 28163U 04005A   14242.99934213 -.00000135  00000-0  00000+0 0  3928
2 28163  64.3080  65.4025 7378347 245.5467 350.7934  2.00608525 77167
   end_orbit
end_platform

